CCSDS_OMM_VERS = 2.0
CREATION_DATE  = 
ORIGINATOR     = 

OBJECT_NAME    = ARIANE 5 R/B
OBJECT_ID      = 2004-049H
CENTER_NAME    = EARTH
REF_FRAME      = TEME
TIME_SYSTEM    = UTC
MEAN_ELEMENT_THEORY = SGP/SGP4

EPOCH          = 2025-11-04T10:43:09.022944
MEAN_MOTION    = 14.84892962
ECCENTRICITY   = .00855091
INCLINATION    = 98.2512
RA_OF_ASC_NODE = 107.3634
ARG_OF_PERICENTER = 37.6490
MEAN_ANOMALY   = 323.0667

EPHEMERIS_TYPE = 0
CLASSIFICATION_TYPE = U
NORAD_CAT_ID   = 28499
ELEMENT_SET_NO = 999
REV_AT_EPOCH   = 12720
BSTAR          = .11478393E-3
MEAN_MOTION_DOT = .978E-5
MEAN_MOTION_DDOT = 0

CCSDS_OMM_VERS = 2.0
CREATION_DATE  = 
ORIGINATOR     = 

OBJECT_NAME    = CZ-2D R/B
OBJECT_ID      = 2005-024B
CENTER_NAME    = EARTH
REF_FRAME      = TEME
TIME_SYSTEM    = UTC
MEAN_ELEMENT_THEORY = SGP/SGP4

EPOCH          = 2025-11-04T14:44:52.248768
MEAN_MOTION    = 15.50626737
ECCENTRICITY   = .00080804
INCLINATION    = 97.3666
RA_OF_ASC_NODE = 315.1289
ARG_OF_PERICENTER = 111.4545
MEAN_ANOMALY   = 248.7569

EPHEMERIS_TYPE = 0
CLASSIFICATION_TYPE = U
NORAD_CAT_ID   = 28738
ELEMENT_SET_NO = 999
REV_AT_EPOCH   = 12034
BSTAR          = .41747837E-3
MEAN_MOTION_DOT = .23891E-3
MEAN_MOTION_DDOT = 0

CCSDS_OMM_VERS = 2.0
CREATION_DATE  = 
ORIGINATOR     = 

OBJECT_NAME    = ALOS (DAICHI)
OBJECT_ID      = 2006-002A
CENTER_NAME    = EARTH
REF_FRAME      = TEME
TIME_SYSTEM    = UTC
MEAN_ELEMENT_THEORY = SGP/SGP4

EPOCH          = 2025-11-04T10:12:39.381120
MEAN_MOTION    = 14.69291192
ECCENTRICITY   = .00014876
INCLINATION    = 98.1027
RA_OF_ASC_NODE = 260.2007
ARG_OF_PERICENTER = 52.0904
MEAN_ANOMALY   = 308.0436

EPHEMERIS_TYPE = 0
CLASSIFICATION_TYPE = U
NORAD_CAT_ID   = 28931
ELEMENT_SET_NO = 999
REV_AT_EPOCH   = 5508
BSTAR          = .31637619E-3
MEAN_MOTION_DOT = .1818E-4
MEAN_MOTION_DDOT = 0

CCSDS_OMM_VERS = 2.0
CREATION_DATE  = 
ORIGINATOR     = 

OBJECT_NAME    = H-2A R/B
OBJECT_ID      = 2006-002B
CENTER_NAME    = EARTH
REF_FRAME      = TEME
TIME_SYSTEM    = UTC
MEAN_ELEMENT_THEORY = SGP/SGP4

EPOCH          = 2025-11-04T09:17:00.878208
MEAN_MOTION    = 15.13506171
ECCENTRICITY   = .00549838
INCLINATION    = 98.2296
RA_OF_ASC_NODE = 80.0432
ARG_OF_PERICENTER = 307.6421
MEAN_ANOMALY   = 51.9826

EPHEMERIS_TYPE = 0
CLASSIFICATION_TYPE = U
NORAD_CAT_ID   = 28932
ELEMENT_SET_NO = 999
REV_AT_EPOCH   = 7546
BSTAR          = .52633082E-3
MEAN_MOTION_DOT = .9707E-4
MEAN_MOTION_DDOT = 0

CCSDS_OMM_VERS = 2.0
CREATION_DATE  = 
ORIGINATOR     = 

OBJECT_NAME    = RESURS-DK 1
OBJECT_ID      = 2006-021A
CENTER_NAME    = EARTH
REF_FRAME      = TEME
TIME_SYSTEM    = UTC
MEAN_ELEMENT_THEORY = SGP/SGP4

EPOCH          = 2025-11-04T04:40:50.433024
MEAN_MOTION    = 15.11842146
ECCENTRICITY   = .0007348
INCLINATION    = 69.9339
RA_OF_ASC_NODE = 201.4233
ARG_OF_PERICENTER = 290.0643
MEAN_ANOMALY   = 69.9731

EPHEMERIS_TYPE = 0
CLASSIFICATION_TYPE = U
NORAD_CAT_ID   = 29228
ELEMENT_SET_NO = 999
REV_AT_EPOCH   = 6855
BSTAR          = .18816E-3
MEAN_MOTION_DOT = .3119E-4
MEAN_MOTION_DDOT = 0

CCSDS_OMM_VERS = 2.0
CREATION_DATE  = 
ORIGINATOR     = 

OBJECT_NAME    = CZ-4B R/B
OBJECT_ID      = 2006-046C
CENTER_NAME    = EARTH
REF_FRAME      = TEME
TIME_SYSTEM    = UTC
MEAN_ELEMENT_THEORY = SGP/SGP4

EPOCH          = 2025-11-04T13:00:29.807424
MEAN_MOTION    = 15.15300621
ECCENTRICITY   = .00339368
INCLINATION    = 97.5797
RA_OF_ASC_NODE = 348.7868
ARG_OF_PERICENTER = 343.5064
MEAN_ANOMALY   = 16.5061

EPHEMERIS_TYPE = 0
CLASSIFICATION_TYPE = U
NORAD_CAT_ID   = 29507
ELEMENT_SET_NO = 999
REV_AT_EPOCH   = 4108
BSTAR          = .28459795E-3
MEAN_MOTION_DOT = .5367E-4
MEAN_MOTION_DDOT = 0

CCSDS_OMM_VERS = 2.0
CREATION_DATE  = 
ORIGINATOR     = 

OBJECT_NAME    = CZ-2C R/B
OBJECT_ID      = 2007-010B
CENTER_NAME    = EARTH
REF_FRAME      = TEME
TIME_SYSTEM    = UTC
MEAN_ELEMENT_THEORY = SGP/SGP4

EPOCH          = 2025-11-04T07:43:26.956992
MEAN_MOTION    = 14.20185857
ECCENTRICITY   = .00579647
INCLINATION    = 98.3956
RA_OF_ASC_NODE = 62.9110
ARG_OF_PERICENTER = 299.2688
MEAN_ANOMALY   = 60.2703

EPHEMERIS_TYPE = 0
CLASSIFICATION_TYPE = U
NORAD_CAT_ID   = 31114
ELEMENT_SET_NO = 999
REV_AT_EPOCH   = 96192
BSTAR          = .84485577E-4
MEAN_MOTION_DOT = .142E-5
MEAN_MOTION_DDOT = 0

CCSDS_OMM_VERS = 2.0
CREATION_DATE  = 
ORIGINATOR     = 

OBJECT_NAME    = COSMO-SKYMED 1
OBJECT_ID      = 2007-023A
CENTER_NAME    = EARTH
REF_FRAME      = TEME
TIME_SYSTEM    = UTC
MEAN_ELEMENT_THEORY = SGP/SGP4

EPOCH          = 2025-11-04T15:38:32.324928
MEAN_MOTION    = 14.95339232
ECCENTRICITY   = .0001142
INCLINATION    = 97.8849
RA_OF_ASC_NODE = 133.8099
ARG_OF_PERICENTER = 91.7553
MEAN_ANOMALY   = 268.3799

EPHEMERIS_TYPE = 0
CLASSIFICATION_TYPE = U
NORAD_CAT_ID   = 31598
ELEMENT_SET_NO = 999
REV_AT_EPOCH   = 99620
BSTAR          = .3235174E-3
MEAN_MOTION_DOT = .3509E-4
MEAN_MOTION_DDOT = 0

CCSDS_OMM_VERS = 2.0
CREATION_DATE  = 
ORIGINATOR     = 

OBJECT_NAME    = COSMOS 2428
OBJECT_ID      = 2007-029A
CENTER_NAME    = EARTH
REF_FRAME      = TEME
TIME_SYSTEM    = UTC
MEAN_ELEMENT_THEORY = SGP/SGP4

EPOCH          = 2025-11-04T10:28:49.456128
MEAN_MOTION    = 14.12891367
ECCENTRICITY   = .00018544
INCLINATION    = 70.9363
RA_OF_ASC_NODE = 106.2938
ARG_OF_PERICENTER = 99.5911
MEAN_ANOMALY   = 260.5419

EPHEMERIS_TYPE = 0
CLASSIFICATION_TYPE = U
NORAD_CAT_ID   = 31792
ELEMENT_SET_NO = 999
REV_AT_EPOCH   = 94640
BSTAR          = -.10638255E-3
MEAN_MOTION_DOT = -.246E-5
MEAN_MOTION_DDOT = 0

CCSDS_OMM_VERS = 2.0
CREATION_DATE  = 
ORIGINATOR     = 

OBJECT_NAME    = SL-16 R/B
OBJECT_ID      = 2007-029B
CENTER_NAME    = EARTH
REF_FRAME      = TEME
TIME_SYSTEM    = UTC
MEAN_ELEMENT_THEORY = SGP/SGP4

EPOCH          = 2025-11-04T11:51:48.912768
MEAN_MOTION    = 14.14803407
ECCENTRICITY   = .00022498
INCLINATION    = 70.9745
RA_OF_ASC_NODE = 75.5476
ARG_OF_PERICENTER = 258.1463
MEAN_ANOMALY   = 169.0385

EPHEMERIS_TYPE = 0
CLASSIFICATION_TYPE = U
NORAD_CAT_ID   = 31793
ELEMENT_SET_NO = 999
REV_AT_EPOCH   = 94766
BSTAR          = .41123893E-4
MEAN_MOTION_DOT = .31E-6
MEAN_MOTION_DDOT = 0

CCSDS_OMM_VERS = 2.0
CREATION_DATE  = 
ORIGINATOR     = 

OBJECT_NAME    = KORONAS-FOTON
OBJECT_ID      = 2009-003A
CENTER_NAME    = EARTH
REF_FRAME      = TEME
TIME_SYSTEM    = UTC
MEAN_ELEMENT_THEORY = SGP/SGP4

EPOCH          = 2025-11-04T13:29:33.799200
MEAN_MOTION    = 15.39929896
ECCENTRICITY   = .00106935
INCLINATION    = 82.4341
RA_OF_ASC_NODE = 45.6189
ARG_OF_PERICENTER = 243.9284
MEAN_ANOMALY   = 116.0861

EPHEMERIS_TYPE = 0
CLASSIFICATION_TYPE = U
NORAD_CAT_ID   = 33504
ELEMENT_SET_NO = 999
REV_AT_EPOCH   = 92646
BSTAR          = .35565914E-3
MEAN_MOTION_DOT = .14223E-3
MEAN_MOTION_DDOT = 0

CCSDS_OMM_VERS = 2.0
CREATION_DATE  = 
ORIGINATOR     = 

OBJECT_NAME    = CZ-2C R/B
OBJECT_ID      = 2011-030B
CENTER_NAME    = EARTH
REF_FRAME      = TEME
TIME_SYSTEM    = UTC
MEAN_ELEMENT_THEORY = SGP/SGP4

EPOCH          = 2025-11-04T11:50:16.937376
MEAN_MOTION    = 14.80689335
ECCENTRICITY   = .00542178
INCLINATION    = 97.8346
RA_OF_ASC_NODE = 263.4656
ARG_OF_PERICENTER = 39.1540
MEAN_ANOMALY   = 76.8324

EPHEMERIS_TYPE = 0
CLASSIFICATION_TYPE = U
NORAD_CAT_ID   = 37731
ELEMENT_SET_NO = 999
REV_AT_EPOCH   = 77156
BSTAR          = .24574533E-3
MEAN_MOTION_DOT = .1883E-4
MEAN_MOTION_DDOT = 0

